ANSER FOLLOWER 1        
1 58019U 23155D   26068.72729826  .00022200  00000+0  59271-3 0  9996
2 58019  97.5602 154.8565 0001358 113.4130 246.7257 15.38126463133625
ANSER LEADER-S          
1 62644U 25009AM  26068.72679758  .00029611  00000+0  79384-3 0  9993
2 62644  97.4062 153.8270 0001434 298.2423  61.8677 15.37938842 63879
