[{"OBJECT_NAME":"ANSER FOLLOWER 1","OBJECT_ID":"2023-155D","EPOCH":"2026-03-09T17:27:18.569664","MEAN_MOTION":15.38126463,"ECCENTRICITY":0.00013588,"INCLINATION":97.5602,"RA_OF_ASC_NODE":154.8565,"ARG_OF_PERICENTER":113.413,"MEAN_ANOMALY":246.7257,"EPHEMERIS_TYPE":0,"CLASSIFICATION_TYPE":"U","NORAD_CAT_ID":58019,"ELEMENT_SET_NO":999,"REV_AT_EPOCH":13362,"BSTAR":0.00059271098,"MEAN_MOTION_DOT":0.000222,"MEAN_MOTION_DDOT":0},{"OBJECT_NAME":"ANSER LEADER-S","OBJECT_ID":"2025-009AM","EPOCH":"2026-03-09T17:26:35.310912","MEAN_MOTION":15.37938842,"ECCENTRICITY":0.00014346,"INCLINATION":97.4062,"RA_OF_ASC_NODE":153.827,"ARG_OF_PERICENTER":298.2423,"MEAN_ANOMALY":61.8677,"EPHEMERIS_TYPE":0,"CLASSIFICATION_TYPE":"U","NORAD_CAT_ID":62644,"ELEMENT_SET_NO":999,"REV_AT_EPOCH":6387,"BSTAR":0.00079384372,"MEAN_MOTION_DOT":0.00029611,"MEAN_MOTION_DDOT":0}]
